[{"OBJECT_NAME":"STARLINK-34966","OBJECT_ID":"2025-179Y","EPOCH":"2026-03-09T17:02:10.059360","MEAN_MOTION":15.0564903,"ECCENTRICITY":0.00017469,"INCLINATION":97.6025,"RA_OF_ASC_NODE":113.0202,"ARG_OF_PERICENTER":95.7705,"MEAN_ANOMALY":264.3721,"EPHEMERIS_TYPE":0,"CLASSIFICATION_TYPE":"U","NORAD_CAT_ID":65257,"ELEMENT_SET_NO":999,"REV_AT_EPOCH":3193,"BSTAR":3.0656634e-5,"MEAN_MOTION_DOT":3.82e-6,"MEAN_MOTION_DDOT":0},{"OBJECT_NAME":"NEONSAT-1A","OBJECT_ID":"2026-019A","EPOCH":"2026-03-09T21:53:31.879392","MEAN_MOTION":15.0780294,"ECCENTRICITY":0.00137261,"INCLINATION":97.411,"RA_OF_ASC_NODE":192.4819,"ARG_OF_PERICENTER":167.4713,"MEAN_ANOMALY":192.686,"EPHEMERIS_TYPE":0,"CLASSIFICATION_TYPE":"U","NORAD_CAT_ID":67614,"ELEMENT_SET_NO":999,"REV_AT_EPOCH":585,"BSTAR":0.00027109929,"MEAN_MOTION_DOT":4.096e-5,"MEAN_MOTION_DDOT":0}]
